COSMOS 2251 DEB         
1 35645U 93036ANL 26066.03369146  .00004926  00000+0  13312-2 0  9998
2 35645  73.9628 289.7069 0067927  68.2107 292.6260 14.46689928879903
COSMOS 2251 DEB         
1 35646U 93036ANM 26062.97829953  .00001021  00000+0  10179-2 0  9996
2 35646  73.8701 287.1172 0457255  23.1673  39.1503 13.40983925829475
COSMOS 2251 DEB         
1 35647U 93036ANN 26065.87617641  .00002441  00000+0  71009-3 0  9995
2 35647  74.0220 137.9900 0047955 221.6019 138.1486 14.44120579688787
COSMOS 2251 DEB         
1 35650U 93036ANR 26062.86296596  .00024309  00000+0  27316-2 0  9995
2 35650  74.0434 217.8723 0015480 258.5363 251.9321 14.86560823888384
COSMOS 2251 DEB         
1 35660U 93036APB 26065.09318581  .00001720  00000+0  44794-3 0  9995
2 35660  74.0422 336.7229 0016548 107.2298 316.3126 14.50253584670794
COSMOS 2251 DEB         
1 35661U 93036APC 26065.55650693  .00006821  00000+0  69834-3 0  9999
2 35661  74.0102 272.4751 0085731 354.0073   6.0072 14.87959614891143
COSMOS 2251 DEB         
1 35663U 93036APE 26051.08527142  .00005960  00000+0  10717-2 0  9994
2 35663  74.0211 350.8677 0004349  27.8586 332.2815 14.66839521743982
COSMOS 2251 DEB         
1 35667U 93036APJ 26061.14517127  .00005576  00000+0  11412-2 0  9994
2 35667  74.0611 348.6512 0018155  22.9167 337.2805 14.60920017719627
COSMOS 2251 DEB         
1 35668U 93036APK 26065.29835017  .00001536  00000+0  28331-3 0  9997
2 35668  74.0437  60.0886 0081325 145.4950 215.1537 14.64290705888703
COSMOS 2251 DEB         
1 35669U 93036APL 26064.21228478  .00000841  00000+0  74275-3 0  9992
2 35669  73.8623  24.8166 0385122 122.6033 241.2872 13.57396255619081
COSMOS 2251 DEB         
1 35670U 93036APM 26063.89784945  .00018541  00000+0  15923-2 0  9993
2 35670  73.8910 257.2416 0035075 202.2610 157.7054 14.96947229889558
COSMOS 2251 DEB         
1 35671U 93036APN 26065.58780397  .00000773  00000+0  21130-3 0  9995
2 35671  74.0156 282.0819 0039318  74.8293 317.0002 14.48494322879776
COSMOS 2251 DEB         
1 35674U 93036APR 26065.23397474  .00007385  00000+0  16048-2 0  9997
2 35674  74.0598 158.6827 0093146 185.2760 174.7432 14.55505708873252
COSMOS 2251 DEB         
1 35701U 93036APW 26051.01949744  .00001273  00000+0  88930-3 0  9992
2 35701  74.0022 185.8319 0289936  19.5503 341.6466 13.81154775631156
COSMOS 2251 DEB         
1 35703U 93036APY 26058.78694416  .00006504  00000+0  62224-3 0  9998
2 35703  74.0385 248.3743 0065226 297.5470  61.9095 14.91799606677645
COSMOS 2251 DEB         
1 35705U 93036AQA 26062.44018656  .00025545  00000+0  36746-2 0  9999
2 35705  74.2747 340.6525 0030871 257.4573 102.3148 14.75966715871152
