[{"OBJECT_NAME":"COSMOS 2251 DEB","OBJECT_ID":"1993-036ANL","EPOCH":"2026-03-07T00:48:30.942144","MEAN_MOTION":14.46689928,"ECCENTRICITY":0.0067927,"INCLINATION":73.9628,"RA_OF_ASC_NODE":289.7069,"ARG_OF_PERICENTER":68.2107,"MEAN_ANOMALY":292.626,"EPHEMERIS_TYPE":0,"CLASSIFICATION_TYPE":"U","NORAD_CAT_ID":35645,"ELEMENT_SET_NO":999,"REV_AT_EPOCH":87990,"BSTAR":0.0013312,"MEAN_MOTION_DOT":4.926e-5,"MEAN_MOTION_DDOT":0},{"OBJECT_NAME":"COSMOS 2251 DEB","OBJECT_ID":"1993-036ANM","EPOCH":"2026-03-03T23:28:45.079392","MEAN_MOTION":13.40983925,"ECCENTRICITY":0.0457255,"INCLINATION":73.8701,"RA_OF_ASC_NODE":287.1172,"ARG_OF_PERICENTER":23.1673,"MEAN_ANOMALY":39.1503,"EPHEMERIS_TYPE":0,"CLASSIFICATION_TYPE":"U","NORAD_CAT_ID":35646,"ELEMENT_SET_NO":999,"REV_AT_EPOCH":82947,"BSTAR":0.0010179,"MEAN_MOTION_DOT":1.021e-5,"MEAN_MOTION_DDOT":0},{"OBJECT_NAME":"COSMOS 2251 DEB","OBJECT_ID":"1993-036ANN","EPOCH":"2026-03-06T21:01:41.641824","MEAN_MOTION":14.44120579,"ECCENTRICITY":0.0047955,"INCLINATION":74.022,"RA_OF_ASC_NODE":137.99,"ARG_OF_PERICENTER":221.6019,"MEAN_ANOMALY":138.1486,"EPHEMERIS_TYPE":0,"CLASSIFICATION_TYPE":"U","NORAD_CAT_ID":35647,"ELEMENT_SET_NO":999,"REV_AT_EPOCH":68878,"BSTAR":0.00071009,"MEAN_MOTION_DOT":2.441e-5,"MEAN_MOTION_DDOT":0},{"OBJECT_NAME":"COSMOS 2251 DEB","OBJECT_ID":"1993-036ANR","EPOCH":"2026-03-03T20:42:40.258944","MEAN_MOTION":14.86560823,"ECCENTRICITY":0.001548,"INCLINATION":74.0434,"RA_OF_ASC_NODE":217.8723,"ARG_OF_PERICENTER":258.5363,"MEAN_ANOMALY":251.9321,"EPHEMERIS_TYPE":0,"CLASSIFICATION_TYPE":"U","NORAD_CAT_ID":35650,"ELEMENT_SET_NO":999,"REV_AT_EPOCH":88838,"BSTAR":0.0027316,"MEAN_MOTION_DOT":0.00024309,"MEAN_MOTION_DDOT":0},{"OBJECT_NAME":"COSMOS 2251 DEB","OBJECT_ID":"1993-036APB","EPOCH":"2026-03-06T02:14:11.253984","MEAN_MOTION":14.50253584,"ECCENTRICITY":0.0016548,"INCLINATION":74.0422,"RA_OF_ASC_NODE":336.7229,"ARG_OF_PERICENTER":107.2298,"MEAN_ANOMALY":316.3126,"EPHEMERIS_TYPE":0,"CLASSIFICATION_TYPE":"U","NORAD_CAT_ID":35660,"ELEMENT_SET_NO":999,"REV_AT_EPOCH":67079,"BSTAR":0.00044793622,"MEAN_MOTION_DOT":1.72e-5,"MEAN_MOTION_DDOT":0},{"OBJECT_NAME":"COSMOS 2251 DEB","OBJECT_ID":"1993-036APC","EPOCH":"2026-03-06T13:21:22.198752","MEAN_MOTION":14.87959614,"ECCENTRICITY":0.00857319,"INCLINATION":74.0102,"RA_OF_ASC_NODE":272.4751,"ARG_OF_PERICENTER":354.0073,"MEAN_ANOMALY":6.0072,"EPHEMERIS_TYPE":0,"CLASSIFICATION_TYPE":"U","NORAD_CAT_ID":35661,"ELEMENT_SET_NO":999,"REV_AT_EPOCH":89114,"BSTAR":0.00069833761,"MEAN_MOTION_DOT":6.821e-5,"MEAN_MOTION_DDOT":0},{"OBJECT_NAME":"COSMOS 2251 DEB","OBJECT_ID":"1993-036APE","EPOCH":"2026-02-20T02:02:47.450688","MEAN_MOTION":14.66839521,"ECCENTRICITY":0.00043493,"INCLINATION":74.0211,"RA_OF_ASC_NODE":350.8677,"ARG_OF_PERICENTER":27.8586,"MEAN_ANOMALY":332.2815,"EPHEMERIS_TYPE":0,"CLASSIFICATION_TYPE":"U","NORAD_CAT_ID":35663,"ELEMENT_SET_NO":999,"REV_AT_EPOCH":74398,"BSTAR":0.0010717497,"MEAN_MOTION_DOT":5.96e-5,"MEAN_MOTION_DDOT":0},{"OBJECT_NAME":"COSMOS 2251 DEB","OBJECT_ID":"1993-036APJ","EPOCH":"2026-03-02T03:29:02.797728","MEAN_MOTION":14.60920017,"ECCENTRICITY":0.00181559,"INCLINATION":74.0611,"RA_OF_ASC_NODE":348.6512,"ARG_OF_PERICENTER":22.9167,"MEAN_ANOMALY":337.2805,"EPHEMERIS_TYPE":0,"CLASSIFICATION_TYPE":"U","NORAD_CAT_ID":35667,"ELEMENT_SET_NO":999,"REV_AT_EPOCH":71962,"BSTAR":0.0011411972,"MEAN_MOTION_DOT":5.576e-5,"MEAN_MOTION_DDOT":0},{"OBJECT_NAME":"COSMOS 2251 DEB","OBJECT_ID":"1993-036APK","EPOCH":"2026-03-06T07:09:37.454688","MEAN_MOTION":14.64290705,"ECCENTRICITY":0.00813254,"INCLINATION":74.0437,"RA_OF_ASC_NODE":60.0886,"ARG_OF_PERICENTER":145.495,"MEAN_ANOMALY":215.1537,"EPHEMERIS_TYPE":0,"CLASSIFICATION_TYPE":"U","NORAD_CAT_ID":35668,"ELEMENT_SET_NO":999,"REV_AT_EPOCH":88870,"BSTAR":0.00028330737,"MEAN_MOTION_DOT":1.536e-5,"MEAN_MOTION_DDOT":0},{"OBJECT_NAME":"COSMOS 2251 DEB","OBJECT_ID":"1993-036APL","EPOCH":"2026-03-05T05:05:41.404992","MEAN_MOTION":13.57396255,"ECCENTRICITY":0.0385122,"INCLINATION":73.8623,"RA_OF_ASC_NODE":24.8166,"ARG_OF_PERICENTER":122.6033,"MEAN_ANOMALY":241.2872,"EPHEMERIS_TYPE":0,"CLASSIFICATION_TYPE":"U","NORAD_CAT_ID":35669,"ELEMENT_SET_NO":999,"REV_AT_EPOCH":61908,"BSTAR":0.00074275,"MEAN_MOTION_DOT":8.41e-6,"MEAN_MOTION_DDOT":0},{"OBJECT_NAME":"COSMOS 2251 DEB","OBJECT_ID":"1993-036APM","EPOCH":"2026-03-04T21:32:54.192480","MEAN_MOTION":14.96947229,"ECCENTRICITY":0.00350755,"INCLINATION":73.891,"RA_OF_ASC_NODE":257.2416,"ARG_OF_PERICENTER":202.261,"MEAN_ANOMALY":157.7054,"EPHEMERIS_TYPE":0,"CLASSIFICATION_TYPE":"U","NORAD_CAT_ID":35670,"ELEMENT_SET_NO":999,"REV_AT_EPOCH":88955,"BSTAR":0.0015922685,"MEAN_MOTION_DOT":0.00018541,"MEAN_MOTION_DDOT":0},{"OBJECT_NAME":"COSMOS 2251 DEB","OBJECT_ID":"1993-036APN","EPOCH":"2026-03-06T14:06:26.263008","MEAN_MOTION":14.48494322,"ECCENTRICITY":0.00393184,"INCLINATION":74.0156,"RA_OF_ASC_NODE":282.0819,"ARG_OF_PERICENTER":74.8293,"MEAN_ANOMALY":317.0002,"EPHEMERIS_TYPE":0,"CLASSIFICATION_TYPE":"U","NORAD_CAT_ID":35671,"ELEMENT_SET_NO":999,"REV_AT_EPOCH":87977,"BSTAR":0.00021129785,"MEAN_MOTION_DOT":7.73e-6,"MEAN_MOTION_DDOT":0},{"OBJECT_NAME":"COSMOS 2251 DEB","OBJECT_ID":"1993-036APR","EPOCH":"2026-03-06T05:36:55.417536","MEAN_MOTION":14.55505708,"ECCENTRICITY":0.00931463,"INCLINATION":74.0598,"RA_OF_ASC_NODE":158.6827,"ARG_OF_PERICENTER":185.276,"MEAN_ANOMALY":174.7432,"EPHEMERIS_TYPE":0,"CLASSIFICATION_TYPE":"U","NORAD_CAT_ID":35674,"ELEMENT_SET_NO":999,"REV_AT_EPOCH":87325,"BSTAR":0.0016048168,"MEAN_MOTION_DOT":7.385e-5,"MEAN_MOTION_DDOT":0},{"OBJECT_NAME":"COSMOS 2251 DEB","OBJECT_ID":"1993-036APW","EPOCH":"2026-02-20T00:28:04.578816","MEAN_MOTION":13.81154775,"ECCENTRICITY":0.02899367,"INCLINATION":74.0022,"RA_OF_ASC_NODE":185.8319,"ARG_OF_PERICENTER":19.5503,"MEAN_ANOMALY":341.6466,"EPHEMERIS_TYPE":0,"CLASSIFICATION_TYPE":"U","NORAD_CAT_ID":35701,"ELEMENT_SET_NO":999,"REV_AT_EPOCH":63115,"BSTAR":0.00088930017,"MEAN_MOTION_DOT":1.273e-5,"MEAN_MOTION_DDOT":0},{"OBJECT_NAME":"COSMOS 2251 DEB","OBJECT_ID":"1993-036APY","EPOCH":"2026-02-27T18:53:11.975424","MEAN_MOTION":14.91799606,"ECCENTRICITY":0.00652266,"INCLINATION":74.0385,"RA_OF_ASC_NODE":248.3743,"ARG_OF_PERICENTER":297.547,"MEAN_ANOMALY":61.9095,"EPHEMERIS_TYPE":0,"CLASSIFICATION_TYPE":"U","NORAD_CAT_ID":35703,"ELEMENT_SET_NO":999,"REV_AT_EPOCH":67764,"BSTAR":0.00062223908,"MEAN_MOTION_DOT":6.504e-5,"MEAN_MOTION_DDOT":0},{"OBJECT_NAME":"COSMOS 2251 DEB","OBJECT_ID":"1993-036AQA","EPOCH":"2026-03-03T10:33:52.118784","MEAN_MOTION":14.75966715,"ECCENTRICITY":0.00308719,"INCLINATION":74.2747,"RA_OF_ASC_NODE":340.6525,"ARG_OF_PERICENTER":257.4573,"MEAN_ANOMALY":102.3148,"EPHEMERIS_TYPE":0,"CLASSIFICATION_TYPE":"U","NORAD_CAT_ID":35705,"ELEMENT_SET_NO":999,"REV_AT_EPOCH":87115,"BSTAR":0.0036746005,"MEAN_MOTION_DOT":0.00025545,"MEAN_MOTION_DDOT":0}]
